NORAD_CAT_ID,OBJECT_NAME,OBJECT_TYPE,EPOCH,MEAN_MOTION,ECCENTRICITY,INCLINATION,RA_OF_ASC_NODE,ARG_OF_PERICENTER,MEAN_ANOMALY,BSTAR,MEAN_MOTION_DOT,MEAN_MOTION_DDOT,TLE_LINE0,TLE_LINE1,TLE_LINE2,SEMIMAJOR_AXIS,PERIOD,APOGEE,PERIGEE,DECAYED
52280.0,STARLINK-3764,PAYLOAD,2023-08-18 09:45:43,15.08833738,0.0001107,53.2173,343.2834,95.2829,264.829,3.2228e-05,2.25e-06,0.0,0 STARLINK-3764,1 52280U 22041V   23230.40675877  .00000225  00000-0  32228-4 0  9990,2 52280  53.2173 343.2834 0001107  95.2829 264.8290 15.08833738 74548,6917.9,95.438,540.53,538.999,0.0
52280.0,STARLINK-3764,PAYLOAD,2023-08-18 14:31:52,15.08841475,0.0001054,53.2175,342.391,98.0591,262.0521,9.6535e-05,1.249e-05,0.0,0 STARLINK-3764,1 52280U 22041V   23230.60547252  .00001249  00000-0  96535-4 0  9995,2 52280  53.2175 342.3910 0001054  98.0591 262.0521 15.08841475 74570,6917.876,95.437,540.47,539.012,0.0
52280.0,STARLINK-3764,PAYLOAD,2023-08-19 11:11:54,15.08833565,0.0001125,53.2169,338.5266,97.7476,262.3644,2.4538e-05,1.03e-06,0.0,0 STARLINK-3764,1 52280U 22041V   23231.46660015  .00000103  00000-0  24538-4 0  9995,2 52280  53.2169 338.5266 0001125  97.7476 262.3644 15.08833565 74706,6917.9,95.438,540.543,538.987,0.0
52280.0,STARLINK-3764,PAYLOAD,2023-08-20 17:24:13,15.08841215,0.0001063,53.2171,332.8752,99.2695,260.8417,9.0883e-05,1.159e-05,0.0,0 STARLINK-3764,1 52280U 22041V   23232.72515755  .00001159  00000-0  90883-4 0  9993,2 52280  53.2171 332.8752 0001063  99.2695 260.8417 15.08841215 74899,6917.877,95.437,540.477,539.006,0.0
52280.0,STARLINK-3764,PAYLOAD,2023-08-22 12:19:38,15.08836493,0.0001174,53.217,324.8454,86.0204,274.0922,0.00011613,1.561e-05,0.0,0 STARLINK-3764,1 52280U 22041V   23234.51364496  .00001561  00000-0  11613-3 0  9996,2 52280  53.2170 324.8454 0001174  86.0204 274.0922 15.08836493 75162,6917.891,95.438,540.568,538.944,0.0
52280.0,STARLINK-3764,PAYLOAD,2023-08-23 12:10:25,15.08847748,0.000136,53.2172,320.3873,82.3312,277.7835,0.00010857,1.441e-05,0.0,0 STARLINK-3764,1 52280U 22041V   23235.50723841  .00001441  00000-0  10857-3 0  9995,2 52280  53.2172 320.3873 0001360  82.3312 277.7835 15.08847748 75311,6917.857,95.437,540.663,538.781,0.0
52280.0,STARLINK-3764,PAYLOAD,2023-08-24 12:01:12,15.08841081,0.0001281,53.2168,315.9262,81.0626,279.0511,8.64e-05,1.087e-05,0.0,0 STARLINK-3764,1 52280U 22041V   23236.50084215  .00001087  00000-0  86400-4 0  9995,2 52280  53.2168 315.9262 0001281  81.0626 279.0511 15.08841081 74245,6917.877,95.437,540.628,538.856,0.0
52280.0,STARLINK-3764,PAYLOAD,2023-08-25 10:16:36,15.08844678,0.0001369,53.2166,311.7645,66.7986,293.315,2.6558e-05,1.35e-06,0.0,0 STARLINK-3764,1 52280U 22041V   23237.42820046  .00000135  00000-0  26558-4 0  9998,2 52280  53.2166 311.7645 0001369  66.7986 293.3150 15.08844678 74386,6917.866,95.437,540.678,538.784,0.0
52280.0,STARLINK-3764,PAYLOAD,2023-08-25 16:38:08,15.08851861,0.0001325,53.2166,310.5741,76.0322,284.0817,8.1179e-05,1.005e-05,0.0,0 STARLINK-3764,1 52280U 22041V   23237.69315271  .00001005  00000-0  81179-4 0  9993,2 52280  53.2166 310.5741 0001325  76.0322 284.0817 15.08851861 75649,6917.844,95.437,540.626,538.793,0.0
52280.0,STARLINK-3764,PAYLOAD,2023-08-26 10:07:24,15.08834461,0.000136,53.2166,307.3026,83.8071,276.3076,1.2242e-05,-9.3e-07,0.0,0 STARLINK-3764,1 52280U 22041V   23238.42180815 -.00000093  00000-0  12242-4 0  9991,2 52280  53.2166 307.3026 0001360  83.8071 276.3076 15.08834461 75755,6917.897,95.438,540.703,538.821,0.0
52280.0,STARLINK-3764,PAYLOAD,2023-08-26 11:42:47,15.08836852,0.000137,53.2169,307.0048,87.3145,272.8004,2.792e-05,1.56e-06,0.0,0 STARLINK-3764,1 52280U 22041V   23238.48804629  .00000156  00000-0  27920-4 0  9991,2 52280  53.2169 307.0048 0001370  87.3145 272.8004 15.08836852 74545,6917.89,95.438,540.703,538.807,0.0
52280.0,STARLINK-3764,PAYLOAD,2023-08-27 03:36:38,15.0884469,0.0001914,53.2167,304.0308,122.0188,238.099,-3.9991e-05,-9.25e-06,0.0,0 STARLINK-3764,1 52280U 22041V   23239.15044476 -.00000925  00000-0 -39991-4 0  9999,2 52280  53.2167 304.0308 0001914 122.0188 238.0990 15.08844690 75860,6917.866,95.437,541.055,538.407,0.0
52280.0,STARLINK-3764,PAYLOAD,2023-08-27 09:58:11,15.08840468,0.0001454,53.2167,302.8415,97.6745,262.4412,4.3985e-05,4.12e-06,0.0,0 STARLINK-3764,1 52280U 22041V   23239.41540557  .00000412  00000-0  43985-4 0  9996,2 52280  53.2167 302.8415 0001454  97.6745 262.4412 15.08840468 74688,6917.879,95.438,540.75,538.738,0.0
52280.0,STARLINK-3764,PAYLOAD,2023-08-28 08:13:35,15.08837074,0.0001461,53.2171,298.6783,101.9642,258.1514,9.0066e-05,1.146e-05,0.0,0 STARLINK-3764,1 52280U 22041V   23240.34276877  .00001146  00000-0  90066-4 0  9998,2 52280  53.2171 298.6783 0001461 101.9642 258.1514 15.08837074 76042,6917.889,95.438,540.765,538.744,0.0
52280.0,STARLINK-3764,PAYLOAD,2023-08-28 16:10:30,15.08844357,0.0001405,53.2163,297.1912,98.9122,261.2029,0.0001403,1.946e-05,0.0,0 STARLINK-3764,1 52280U 22041V   23240.67396312  .00001946  00000-0  14030-3 0  9995,2 52280  53.2163 297.1912 0001405  98.9122 261.2029 15.08844357 76090,6917.867,95.437,540.704,538.76,0.0
52280.0,STARLINK-3764,PAYLOAD,2023-08-28 20:56:40,15.0884329,0.0001423,53.2159,296.2983,80.0162,280.0991,7.561e-05,9.16e-06,0.0,0 STARLINK-3764,1 52280U 22041V   23240.87268621  .00000916  00000-0  75610-4 0  9996,2 52280  53.2159 296.2983 0001423  80.0162 280.0991 15.08843290 74909,6917.87,95.437,540.72,538.751,0.0
52280.0,STARLINK-3764,PAYLOAD,2023-08-29 09:39:45,15.0883848,0.000151,53.2157,293.9196,81.9763,278.14,5.1425e-05,5.31e-06,0.0,0 STARLINK-3764,1 52280U 22041V   23241.40261055  .00000531  00000-0  51425-4 0  9991,2 52280  53.2157 293.9196 0001510  81.9763 278.1400 15.08838480 76204,6917.885,95.438,540.795,538.705,0.0
52280.0,STARLINK-3764,PAYLOAD,2023-08-29 12:50:31,15.08835772,0.0001503,53.2162,293.3244,85.4698,274.6466,0.00017926,2.566e-05,0.0,0 STARLINK-3764,1 52280U 22041V   23241.53508971  .00002566  00000-0  17926-3 0  9993,2 52280  53.2162 293.3244 0001503  85.4698 274.6466 15.08835772 75007,6917.893,95.438,540.798,538.719,0.0
52280.0,STARLINK-3764,PAYLOAD,2023-08-30 20:38:14,15.08843137,0.0001302,53.2164,287.3782,84.9826,275.1314,4.0115e-05,3.51e-06,0.0,0 STARLINK-3764,1 52280U 22041V   23242.85988766  .00000351  00000-0  40115-4 0  9990,2 52280  53.2164 287.3782 0001302  84.9826 275.1314 15.08843137 75207,6917.871,95.437,540.637,538.835,0.0
52280.0,STARLINK-3764,PAYLOAD,2023-08-31 06:10:33,15.08833494,0.0001127,53.2167,285.5944,84.0715,276.0406,0.00011443,1.533e-05,0.0,0 STARLINK-3764,1 52280U 22041V   23243.25733218  .00001533  00000-0  11443-3 0  9999,2 52280  53.2167 285.5944 0001127  84.0715 276.0406 15.08833494 76481,6917.9,95.438,540.545,538.986,0.0
52280.0,STARLINK-3764,PAYLOAD,2023-08-31 12:32:05,15.08843414,0.0001387,53.2167,284.4054,89.2508,270.8643,8.4268e-05,1.054e-05,0.0,0 STARLINK-3764,1 52280U 22041V   23243.52228655  .00001054  00000-0  84268-4 0  9997,2 52280  53.2167 284.4054 0001387  89.2508 270.8643 15.08843414 76529,6917.87,95.437,540.694,538.775,0.0
52280.0,STARLINK-3764,PAYLOAD,2023-09-01 12:22:52,15.08840538,0.0001518,53.2163,279.9457,82.5341,277.5824,9.8618e-05,1.282e-05,0.0,0 STARLINK-3764,1 52280U 22041V   23244.51588874  .00001282  00000-0  98618-4 0  9996,2 52280  53.2163 279.9457 0001518  82.5341 277.5824 15.08840538 75458,6917.879,95.438,540.794,538.694,0.0
52280.0,STARLINK-3764,PAYLOAD,2023-09-01 13:58:15,15.08845662,0.0001395,53.2161,279.6463,89.2096,270.9056,0.00010297,1.351e-05,0.0,0 STARLINK-3764,1 52280U 22041V   23244.58212516  .00001351  00000-0  10297-3 0  9993,2 52280  53.2161 279.6463 0001395  89.2096 270.9056 15.08845662 76687,6917.863,95.437,540.693,538.763,0.0
52280.0,STARLINK-3764,PAYLOAD,2023-09-02 09:02:54,15.08826475,1.51e-05,53.218,276.0811,36.8599,323.2403,0.00017934,2.567e-05,0.0,0 STARLINK-3764,1 52280U 22041V   23245.37701488  .00002567  00000-0  17934-3 0  9997,2 52280  53.2180 276.0811 0000151  36.8599 323.2403 15.08826475 76804,6917.922,95.438,539.891,539.682,0.0
52280.0,STARLINK-3764,PAYLOAD,2023-09-02 12:13:39,15.08841681,0.0001578,53.2163,275.4826,92.6209,267.4964,4.5846e-05,4.42e-06,0.0,0 STARLINK-3764,1 52280U 22041V   23245.50948873  .00000442  00000-0  45846-4 0  9997,2 52280  53.2163 275.4826 0001578  92.6209 267.4964 15.08841681 75600,6917.875,95.437,540.832,538.649,0.0
52280.0,STARLINK-3764,PAYLOAD,2023-09-02 13:49:02,15.08846941,0.0001541,53.2161,275.1851,92.1192,267.9977,1.5352e-05,-4.4e-07,0.0,0 STARLINK-3764,1 52280U 22041V   23245.57572580 -.00000044  00000-0  15352-4 0  9990,2 52280  53.2161 275.1851 0001541  92.1192 267.9977 15.08846941 76838,6917.859,95.437,540.79,538.658,0.0
52280.0,STARLINK-3764,PAYLOAD,2023-09-02 18:35:12,15.08840551,0.000157,53.2174,274.2921,91.1494,268.9678,6.1167e-05,6.86e-06,0.0,0 STARLINK-3764,1 52280U 22041V   23245.77444893  .00000686  00000-0  61167-4 0  9993,2 52280  53.2174 274.2921 0001570  91.1494 268.9678 15.08840551 75644,6917.879,95.438,540.83,538.658,0.0
52280.0,STARLINK-3764,PAYLOAD,2023-09-03 08:53:40,15.0884569,0.0001513,53.216,271.6161,91.6744,268.4421,7.4915e-05,9.05e-06,0.0,0 STARLINK-3764,1 52280U 22041V   23246.37060529  .00000905  00000-0  74915-4 0  9999,2 52280  53.2160 271.6161 0001513  91.6744 268.4421 15.08845690 75736,6917.863,95.437,540.775,538.681,0.0
52280.0,STARLINK-3764,PAYLOAD,2023-09-03 18:26:00,15.08828728,0.0002032,53.2161,269.8313,89.0957,271.0268,-4.6714e-05,-1.031e-05,0.0,0 STARLINK-3764,1 52280U 22041V   23246.76806096 -.00001031  00000-0 -46714-4 0  9998,2 52280  53.2161 269.8313 0002032  89.0957 271.0268 15.08828728 77014,6917.915,95.438,541.186,538.374,0.0
52280.0,STARLINK-3764,PAYLOAD,2023-09-04 08:44:28,15.08826382,0.0001885,53.2149,267.1542,88.2063,271.9145,9.9941e-05,1.302e-05,0.0,0 STARLINK-3764,1 52280U 22041V   23247.36421925  .00001302  00000-0  99941-4 0  9998,2 52280  53.2149 267.1542 0001885  88.2063 271.9145 15.08826382 75889,6917.922,95.438,541.091,538.483,0.0
